{
  "type": "FeatureCollection",
  "features": [
    {
      "type": "Feature",
      "properties": {
        "norad_id": 31357,
        "name": "FENGYUN 1C DEB",
        "group": "fengyun-1c-debris",
        "lat": 55.430333551780926,
        "lon": -5.100026414460437,
        "alt_km": 826.7263465560509,
        "timestamp": "2025-12-02T07:10:09.397289+00:00",
        "meta_object_name": "FENGYUN 1C DEB",
        "meta_object_id": "1999-025BRM",
        "meta_epoch": "2025-11-30T00:52:28.172352",
        "meta_mean_motion": 14.18522875,
        "meta_eccentricity": 0.00493295,
        "meta_inclination": 98.613,
        "meta_ra_of_asc_node": 5.4099,
        "meta_arg_of_pericenter": 329.9646,
        "meta_mean_anomaly": 59.6806,
        "meta_ephemeris_type": 0,
        "meta_classification_type": "U",
        "meta_norad_cat_id": 31357,
        "meta_element_set_no": 999,
        "meta_rev_at_epoch": 96524,
        "meta_bstar": 4.375307e-05,
        "meta_mean_motion_dot": 4.9e-07,
        "meta_mean_motion_ddot": 0,
        "tle_line1": "1 31357U 99025BRM 25334.03643718  .00000049  00000+0  43753-4 0  9991",
        "tle_line2": "2 31357  98.6130   5.4099 0049329 329.9646  59.6806 14.18522875965244"
      },
      "geometry": {
        "type": "Point",
        "coordinates": [
          -5.100026414460437,
          55.430333551780926
        ]
      }
    },
    {
      "type": "Feature",
      "properties": {
        "norad_id": 31358,
        "name": "FENGYUN 1C DEB",
        "group": "fengyun-1c-debris",
        "lat": -65.88200433742205,
        "lon": 67.07187773150898,
        "alt_km": 537.5138619793079,
        "timestamp": "2025-12-02T07:10:09.397299+00:00",
        "meta_object_name": "FENGYUN 1C DEB",
        "meta_object_id": "1999-025BRN",
        "meta_epoch": "2025-12-01T18:58:41.078208",
        "meta_mean_motion": 15.13755848,
        "meta_eccentricity": 0.0041037,
        "meta_inclination": 98.9074,
        "meta_ra_of_asc_node": 266.9853,
        "meta_arg_of_pericenter": 146.7558,
        "meta_mean_anomaly": 213.626,
        "meta_ephemeris_type": 0,
        "meta_classification_type": "U",
        "meta_norad_cat_id": 31358,
        "meta_element_set_no": 999,
        "meta_rev_at_epoch": 97404,
        "meta_bstar": 0.0069488,
        "meta_mean_motion_dot": 0.00129969,
        "meta_mean_motion_ddot": 0,
        "tle_line1": "1 31358U 99025BRN 25335.79075322  .00129969  00000+0  69488-2 0  9990",
        "tle_line2": "2 31358  98.9074 266.9853 0041037 146.7558 213.6260 15.13755848974040"
      },
      "geometry": {
        "type": "Point",
        "coordinates": [
          67.07187773150898,
          -65.88200433742205
        ]
      }
    },
    {
      "type": "Feature",
      "properties": {
        "norad_id": 31361,
        "name": "FENGYUN 1C DEB",
        "group": "fengyun-1c-debris",
        "lat": -48.93330152275586,
        "lon": 122.05683276935433,
        "alt_km": 861.032535708754,
        "timestamp": "2025-12-02T07:10:09.397309+00:00",
        "meta_object_name": "FENGYUN 1C DEB",
        "meta_object_id": "1999-025BRR",
        "meta_epoch": "2025-11-27T15:59:48.634368",
        "meta_mean_motion": 14.17732705,
        "meta_eccentricity": 0.00460685,
        "meta_inclination": 98.5493,
        "meta_ra_of_asc_node": 307.5397,
        "meta_arg_of_pericenter": 113.1293,
        "meta_mean_anomaly": 247.4747,
        "meta_ephemeris_type": 0,
        "meta_classification_type": "U",
        "meta_norad_cat_id": 31361,
        "meta_element_set_no": 999,
        "meta_rev_at_epoch": 96350,
        "meta_bstar": 0.00014405604,
        "meta_mean_motion_dot": 2.55e-06,
        "meta_mean_motion_ddot": 0,
        "tle_line1": "1 31361U 99025BRR 25331.66653512  .00000255  00000+0  14406-3 0  9996",
        "tle_line2": "2 31361  98.5493 307.5397 0046068 113.1293 247.4747 14.17732705963507"
      },
      "geometry": {
        "type": "Point",
        "coordinates": [
          122.05683276935433,
          -48.93330152275586
        ]
      }
    },
    {
      "type": "Feature",
      "properties": {
        "norad_id": 31362,
        "name": "FENGYUN 1C DEB",
        "group": "fengyun-1c-debris",
        "lat": -40.14548310026625,
        "lon": 143.54785138469595,
        "alt_km": 842.3023982216318,
        "timestamp": "2025-12-02T07:10:09.397321+00:00",
        "meta_object_name": "FENGYUN 1C DEB",
        "meta_object_id": "1999-025BRS",
        "meta_epoch": "2025-11-30T18:33:16.070688",
        "meta_mean_motion": 14.17365366,
        "meta_eccentricity": 0.00189809,
        "meta_inclination": 98.6521,
        "meta_ra_of_asc_node": 329.4414,
        "meta_arg_of_pericenter": 128.3451,
        "meta_mean_anomaly": 231.9434,
        "meta_ephemeris_type": 0,
        "meta_classification_type": "U",
        "meta_norad_cat_id": 31362,
        "meta_element_set_no": 999,
        "meta_rev_at_epoch": 96406,
        "meta_bstar": 0.00017153052,
        "meta_mean_motion_dot": 3.05e-06,
        "meta_mean_motion_ddot": 0,
        "tle_line1": "1 31362U 99025BRS 25334.77310267  .00000305  00000+0  17153-3 0  9997",
        "tle_line2": "2 31362  98.6521 329.4414 0018980 128.3451 231.9434 14.17365366964068"
      },
      "geometry": {
        "type": "Point",
        "coordinates": [
          143.54785138469595,
          -40.14548310026625
        ]
      }
    },
    {
      "type": "Feature",
      "properties": {
        "norad_id": 31364,
        "name": "FENGYUN 1C DEB",
        "group": "fengyun-1c-debris",
        "lat": -14.003352656909046,
        "lon": 97.88742674539806,
        "alt_km": 916.0753760395728,
        "timestamp": "2025-12-02T07:10:09.397331+00:00",
        "meta_object_name": "FENGYUN 1C DEB",
        "meta_object_id": "1999-025BRU",
        "meta_epoch": "2025-12-01T14:15:36.192096",
        "meta_mean_motion": 14.14431053,
        "meta_eccentricity": 0.00951327,
        "meta_inclination": 99.2626,
        "meta_ra_of_asc_node": 94.8246,
        "meta_arg_of_pericenter": 179.2839,
        "meta_mean_anomaly": 180.8486,
        "meta_ephemeris_type": 0,
        "meta_classification_type": "U",
        "meta_norad_cat_id": 31364,
        "meta_element_set_no": 999,
        "meta_rev_at_epoch": 94719,
        "meta_bstar": 0.0033704073,
        "meta_mean_motion_dot": 6.7e-05,
        "meta_mean_motion_ddot": 0,
        "tle_line1": "1 31364U 99025BRU 25335.59416889  .00006700  00000+0  33704-2 0  9991",
        "tle_line2": "2 31364  99.2626  94.8246 0095132 179.2839 180.8486 14.14431053947196"
      },
      "geometry": {
        "type": "Point",
        "coordinates": [
          97.88742674539806,
          -14.003352656909046
        ]
      }
    },
    {
      "type": "Feature",
      "properties": {
        "norad_id": 31365,
        "name": "FENGYUN 1C DEB",
        "group": "fengyun-1c-debris",
        "lat": -6.713960842544215,
        "lon": 62.21218508275396,
        "alt_km": 763.6287256031565,
        "timestamp": "2025-12-02T07:10:09.397343+00:00",
        "meta_object_name": "FENGYUN 1C DEB",
        "meta_object_id": "1999-025BRV",
        "meta_epoch": "2025-12-01T04:32:54.064896",
        "meta_mean_motion": 14.41592,
        "meta_eccentricity": 0.004167,
        "meta_inclination": 98.6754,
        "meta_ra_of_asc_node": 60.0561,
        "meta_arg_of_pericenter": 253.437,
        "meta_mean_anomaly": 106.2239,
        "meta_ephemeris_type": 0,
        "meta_classification_type": "U",
        "meta_norad_cat_id": 31365,
        "meta_element_set_no": 999,
        "meta_rev_at_epoch": 96462,
        "meta_bstar": 0.0025507,
        "meta_mean_motion_dot": 8.348e-05,
        "meta_mean_motion_ddot": 0,
        "tle_line1": "1 31365U 99025BRV 25335.18951464  .00008348  00000+0  25507-2 0  9992",
        "tle_line2": "2 31365  98.6754  60.0561 0041670 253.4370 106.2239 14.41592000964625"
      },
      "geometry": {
        "type": "Point",
        "coordinates": [
          62.21218508275396,
          -6.713960842544215
        ]
      }
    },
    {
      "type": "Feature",
      "properties": {
        "norad_id": 31367,
        "name": "FENGYUN 1C DEB",
        "group": "fengyun-1c-debris",
        "lat": 39.429053872136315,
        "lon": -137.06135623790732,
        "alt_km": 660.5686430356927,
        "timestamp": "2025-12-02T07:10:09.397353+00:00",
        "meta_object_name": "FENGYUN 1C DEB",
        "meta_object_id": "1999-025BRX",
        "meta_epoch": "2025-12-01T16:18:30.267072",
        "meta_mean_motion": 14.4740408,
        "meta_eccentricity": 0.0099945,
        "meta_inclination": 98.746,
        "meta_ra_of_asc_node": 229.5709,
        "meta_arg_of_pericenter": 49.3475,
        "meta_mean_anomaly": 6.2787,
        "meta_ephemeris_type": 0,
        "meta_classification_type": "U",
        "meta_norad_cat_id": 31367,
        "meta_element_set_no": 999,
        "meta_rev_at_epoch": 98306,
        "meta_bstar": 0.00062003,
        "meta_mean_motion_dot": 2.37e-05,
        "meta_mean_motion_ddot": 0,
        "tle_line1": "1 31367U 99025BRX 25335.67951698  .00002370  00000+0  62003-3 0  9999",
        "tle_line2": "2 31367  98.7460 229.5709 0099945  49.3475   6.2787 14.47404080983066"
      },
      "geometry": {
        "type": "Point",
        "coordinates": [
          -137.06135623790732,
          39.429053872136315
        ]
      }
    }
  ]
}